FENGYUN 1C DEB
1 46989U 99025EZP 25322.23946565  .00004948  00000+0  39671-2 0  9997
2 46989  99.5162 123.9034 0235936  42.8370 130.1323 13.79033084707043